{"type": "FeatureCollection", "features": [ {"type": "Feature", "properties": {"norad_id": 33917, "name": "COSMOS 2251 DEB", "group": "cosmos-2251-debris", "lat": -36.04149078039657, "lon": -47.355048618340376, "alt_km": 763.7524307009826, "timestamp": "2025-12-13T18:50:04.823299+00:00", "meta": {"OBJECT_NAME": "COSMOS 2251 DEB", "OBJECT_ID": "1993-036DW", "EPOCH": "2025-12-13T01:58:53.792256", "MEAN_MOTION": 13.69360434, "ECCENTRICITY": 0.03312779, "INCLINATION": 74.1069, "RA_OF_ASC_NODE": 121.8313, "ARG_OF_PERICENTER": 222.7149, "MEAN_ANOMALY": 134.7787, "EPHEMERIS_TYPE": 0, "CLASSIFICATION_TYPE": "U", "NORAD_CAT_ID": 33917, "ELEMENT_SET_NO": 999, "REV_AT_EPOCH": 83738, "BSTAR": 0.0010791418, "MEAN_MOTION_DOT": 1.355e-05, "MEAN_MOTION_DDOT": 0}, "tle": {"line1": "1 33917U 93036DW  25347.08256704  .00001355  00000+0  10791-2 0  9990", "line2": "2 33917  74.1069 121.8313 0331277 222.7149 134.7787 13.69360434837386"}}, "geometry": {"type": "Point", "coordinates": [-47.355048618340376, -36.04149078039657]}}, {"type": "Feature", "properties": {"norad_id": 33920, "name": "COSMOS 2251 DEB", "group": "cosmos-2251-debris", "lat": -73.60153656407688, "lon": -139.7447573410689, "alt_km": 681.9608453623841, "timestamp": "2025-12-13T18:50:04.823310+00:00", "meta": {"OBJECT_NAME": "COSMOS 2251 DEB", "OBJECT_ID": "1993-036DZ", "EPOCH": "2025-12-13T06:03:18.258624", "MEAN_MOTION": 14.58295576, "ECCENTRICITY": 0.00381929, "INCLINATION": 74.0613, "RA_OF_ASC_NODE": 297.4538, "ARG_OF_PERICENTER": 304.1838, "MEAN_ANOMALY": 55.5708, "EPHEMERIS_TYPE": 0, "CLASSIFICATION_TYPE": "U", "NORAD_CAT_ID": 33920, "ELEMENT_SET_NO": 999, "REV_AT_EPOCH": 88122, "BSTAR": 0.0033313171, "MEAN_MOTION_DOT": 0.00015566, "MEAN_MOTION_DDOT": 0}, "tle": {"line1": "1 33920U 93036DZ  25347.25229466  .00015566  00000+0  33313-2 0  9992", "line2": "2 33920  74.0613 297.4538 0038192 304.1838  55.5708 14.58295576881221"}}, "geometry": {"type": "Point", "coordinates": [-139.7447573410689, -73.60153656407688]}}, {"type": "Feature", "properties": {"norad_id": 33922, "name": "COSMOS 2251 DEB", "group": "cosmos-2251-debris", "lat": 22.167299959296987, "lon": 152.49676368573046, "alt_km": 736.513976518012, "timestamp": "2025-12-13T18:50:04.823321+00:00", "meta": {"OBJECT_NAME": "COSMOS 2251 DEB", "OBJECT_ID": "1993-036EB", "EPOCH": "2025-12-13T04:38:10.527360", "MEAN_MOTION": 14.49510336, "ECCENTRICITY": 0.00232695, "INCLINATION": 74.0467, "RA_OF_ASC_NODE": 146.9129, "ARG_OF_PERICENTER": 257.5301, "MEAN_ANOMALY": 279.6076, "EPHEMERIS_TYPE": 0, "CLASSIFICATION_TYPE": "U", "NORAD_CAT_ID": 33922, "ELEMENT_SET_NO": 999, "REV_AT_EPOCH": 88584, "BSTAR": 0.00077317844, "MEAN_MOTION_DOT": 2.947e-05, "MEAN_MOTION_DDOT": 0}, "tle": {"line1": "1 33922U 93036EB  25347.19317740  .00002947  00000+0  77318-3 0  9993", "line2": "2 33922  74.0467 146.9129 0023269 257.5301 279.6076 14.49510336885842"}}, "geometry": {"type": "Point", "coordinates": [152.49676368573046, 22.167299959296987]}}, {"type": "Feature", "properties": {"norad_id": 33924, "name": "COSMOS 2251 DEB", "group": "cosmos-2251-debris", "lat": -56.57143281134522, "lon": -117.39892482061099, "alt_km": 777.7742724590198, "timestamp": "2025-12-13T18:50:04.823331+00:00", "meta": {"OBJECT_NAME": "COSMOS 2251 DEB", "OBJECT_ID": "1993-036ED", "EPOCH": "2025-12-13T04:53:15.591552", "MEAN_MOTION": 13.50226863, "ECCENTRICITY": 0.04040333, "INCLINATION": 73.9137, "RA_OF_ASC_NODE": 269.4558, "ARG_OF_PERICENTER": 304.8281, "MEAN_ANOMALY": 51.5435, "EPHEMERIS_TYPE": 0, "CLASSIFICATION_TYPE": "U", "NORAD_CAT_ID": 33924, "ELEMENT_SET_NO": 999, "REV_AT_EPOCH": 82745, "BSTAR": 0.0012788251, "MEAN_MOTION_DOT": 1.332e-05, "MEAN_MOTION_DDOT": 0}, "tle": {"line1": "1 33924U 93036ED  25347.20365268  .00001332  00000+0  12788-2 0  9991", "line2": "2 33924  73.9137 269.4558 0404033 304.8281  51.5435 13.50226863827457"}}, "geometry": {"type": "Point", "coordinates": [-117.39892482061099, -56.57143281134522]}}, {"type": "Feature", "properties": {"norad_id": 33928, "name": "COSMOS 2251 DEB", "group": "cosmos-2251-debris", "lat": -36.51240705276154, "lon": -117.07680582693943, "alt_km": 765.8245082377161, "timestamp": "2025-12-13T18:50:04.823342+00:00", "meta": {"OBJECT_NAME": "COSMOS 2251 DEB", "OBJECT_ID": "1993-036EH", "EPOCH": "2025-12-12T21:55:15.152448", "MEAN_MOTION": 14.47405202, "ECCENTRICITY": 0.00614704, "INCLINATION": 73.9261, "RA_OF_ASC_NODE": 52.2385, "ARG_OF_PERICENTER": 346.3076, "MEAN_ANOMALY": 13.6412, "EPHEMERIS_TYPE": 0, "CLASSIFICATION_TYPE": "U", "NORAD_CAT_ID": 33928, "ELEMENT_SET_NO": 999, "REV_AT_EPOCH": 88647, "BSTAR": 0.0003654765, "MEAN_MOTION_DOT": 1.343e-05, "MEAN_MOTION_DDOT": 0}, "tle": {"line1": "1 33928U 93036EH  25346.91336982  .00001343  00000+0  36548-3 0  9996", "line2": "2 33928  73.9261  52.2385 0061470 346.3076  13.6412 14.47405202886476"}}, "geometry": {"type": "Point", "coordinates": [-117.07680582693943, -36.51240705276154]}}, {"type": "Feature", "properties": {"norad_id": 33932, "name": "COSMOS 2251 DEB", "group": "cosmos-2251-debris", "lat": -35.18279585100592, "lon": -57.652874081497714, "alt_km": 758.4148424864097, "timestamp": "2025-12-13T18:50:04.823352+00:00", "meta": {"OBJECT_NAME": "COSMOS 2251 DEB", "OBJECT_ID": "1993-036EM", "EPOCH": "2025-12-13T07:19:23.791008", "MEAN_MOTION": 14.38761919, "ECCENTRICITY": 0.00353246, "INCLINATION": 74.0345, "RA_OF_ASC_NODE": 314.8747, "ARG_OF_PERICENTER": 30.9296, "MEAN_ANOMALY": 329.3928, "EPHEMERIS_TYPE": 0, "CLASSIFICATION_TYPE": "U", "NORAD_CAT_ID": 33932, "ELEMENT_SET_NO": 999, "REV_AT_EPOCH": 88006, "BSTAR": 0.00081570475, "MEAN_MOTION_DOT": 2.498e-05, "MEAN_MOTION_DDOT": 0}, "tle": {"line1": "1 33932U 93036EM  25347.30513647  .00002498  00000+0  81570-3 0  9997", "line2": "2 33932  74.0345 314.8747 0035324  30.9296 329.3928 14.38761919880062"}}, "geometry": {"type": "Point", "coordinates": [-57.652874081497714, -35.18279585100592]}}, {"type": "Feature", "properties": {"norad_id": 33933, "name": "COSMOS 2251 DEB", "group": "cosmos-2251-debris", "lat": 25.73919974281437, "lon": -129.67177820876606, "alt_km": 775.5936717652557, "timestamp": "2025-12-13T18:50:04.823363+00:00", "meta": {"OBJECT_NAME": "COSMOS 2251 DEB", "OBJECT_ID": "1993-036EN", "EPOCH": "2025-12-13T06:24:21.580416", "MEAN_MOTION": 14.33490586, "ECCENTRICITY": 0.00707955, "INCLINATION": 74.0894, "RA_OF_ASC_NODE": 59.1759, "ARG_OF_PERICENTER": 67.4288, "MEAN_ANOMALY": 293.4335, "EPHEMERIS_TYPE": 0, "CLASSIFICATION_TYPE": "U", "NORAD_CAT_ID": 33933, "ELEMENT_SET_NO": 999, "REV_AT_EPOCH": 87792, "BSTAR": 0.00042652157, "MEAN_MOTION_DOT": 1.187e-05, "MEAN_MOTION_DDOT": 0}, "tle": {"line1": "1 33933U 93036EN  25347.26691644  .00001187  00000+0  42652-3 0  9999", "line2": "2 33933  74.0894  59.1759 0070795  67.4288 293.4335 14.33490586877929"}}, "geometry": {"type": "Point", "coordinates": [-129.67177820876606, 25.73919974281437]}}, {"type": "Feature", "properties": {"norad_id": 33934, "name": "COSMOS 2251 DEB", "group": "cosmos-2251-debris", "lat": 4.908258361869703, "lon": 99.98974596325328, "alt_km": 706.8274711523136, "timestamp": "2025-12-13T18:50:04.823373+00:00", "meta": {"OBJECT_NAME": "COSMOS 2251 DEB", "OBJECT_ID": "1993-036EP", "EPOCH": "2025-12-12T18:07:43.284576", "MEAN_MOTION": 14.59111203, "ECCENTRICITY": 0.00156636, "INCLINATION": 74.0377, "RA_OF_ASC_NODE": 100.5418, "ARG_OF_PERICENTER": 224.3594, "MEAN_ANOMALY": 135.6317, "EPHEMERIS_TYPE": 0, "CLASSIFICATION_TYPE": "U", "NORAD_CAT_ID": 33934, "ELEMENT_SET_NO": 999, "REV_AT_EPOCH": 88739, "BSTAR": 0.0015003059, "MEAN_MOTION_DOT": 7.051e-05, "MEAN_MOTION_DDOT": 0}, "tle": {"line1": "1 33934U 93036EP  25346.75536209  .00007051  00000+0  15003-2 0  9993", "line2": "2 33934  74.0377 100.5418 0015663 224.3594 135.6317 14.59111203887399"}}, "geometry": {"type": "Point", "coordinates": [99.98974596325328, 4.908258361869703]}}, {"type": "Feature", "properties": {"norad_id": 33936, "name": "COSMOS 2251 DEB", "group": "cosmos-2251-debris", "lat": -58.31341675892491, "lon": 7.825595579756511, "alt_km": 704.6798762646376, "timestamp": "2025-12-13T18:50:04.823383+00:00", "meta": {"OBJECT_NAME": "COSMOS 2251 DEB", "OBJECT_ID": "1993-036ER", "EPOCH": "2025-12-13T05:58:00.817248", "MEAN_MOTION": 14.60279507, "ECCENTRICITY": 0.00275077, "INCLINATION": 74.0191, "RA_OF_ASC_NODE": 36.5112, "ARG_OF_PERICENTER": 191.8397, "MEAN_ANOMALY": 168.2125, "EPHEMERIS_TYPE": 0, "CLASSIFICATION_TYPE": "U", "NORAD_CAT_ID": 33936, "ELEMENT_SET_NO": 999, "REV_AT_EPOCH": 88897, "BSTAR": 0.0011028355, "MEAN_MOTION_DOT": 5.327e-05, "MEAN_MOTION_DDOT": 0}, "tle": {"line1": "1 33936U 93036ER  25347.24862057  .00005327  00000+0  11028-2 0  9990", "line2": "2 33936  74.0191  36.5112 0027507 191.8397 168.2125 14.60279507888971"}}, "geometry": {"type": "Point", "coordinates": [7.825595579756511, -58.31341675892491]}}, {"type": "Feature", "properties": {"norad_id": 33938, "name": "COSMOS 2251 DEB", "group": "cosmos-2251-debris", "lat": 70.9788000550155, "lon": -30.857302724604274, "alt_km": 740.8069937694609, "timestamp": "2025-12-13T18:50:04.823394+00:00", "meta": {"OBJECT_NAME": "COSMOS 2251 DEB", "OBJECT_ID": "1993-036ET", "EPOCH": "2025-12-13T02:32:58.691040", "MEAN_MOTION": 14.46795546, "ECCENTRICITY": 0.0016835, "INCLINATION": 74.045, "RA_OF_ASC_NODE": 206.492, "ARG_OF_PERICENTER": 288.7048, "MEAN_ANOMALY": 238.9962, "EPHEMERIS_TYPE": 0, "CLASSIFICATION_TYPE": "U", "NORAD_CAT_ID": 33938, "ELEMENT_SET_NO": 999, "REV_AT_EPOCH": 88405, "BSTAR": 0.00065617048, "MEAN_MOTION_DOT": 2.354e-05, "MEAN_MOTION_DDOT": 0}, "tle": {"line1": "1 33938U 93036ET  25347.10623485  .00002354  00000+0  65617-3 0  9998", "line2": "2 33938  74.0450 206.4920 0016835 288.7048 238.9962 14.46795546884056"}}, "geometry": {"type": "Point", "coordinates": [-30.857302724604274, 70.9788000550155]}}]}